CCSDS_OMM_VERS = 2.0
CREATION_DATE  = 
ORIGINATOR     = 

OBJECT_NAME    = IDEFIX & ARIANE 42P R/B
OBJECT_ID      = 2002-021B
CENTER_NAME    = EARTH
REF_FRAME      = TEME
TIME_SYSTEM    = UTC
MEAN_ELEMENT_THEORY = SGP/SGP4

EPOCH          = 2026-01-17T17:35:58.246656
MEAN_MOTION    = 14.30980360
ECCENTRICITY   = .0011594
INCLINATION    = 98.5823
RA_OF_ASC_NODE = 316.9648
ARG_OF_PERICENTER = 343.1592
MEAN_ANOMALY   = 16.9205

EPHEMERIS_TYPE = 0
CLASSIFICATION_TYPE = U
NORAD_CAT_ID   = 27422
ELEMENT_SET_NO = 999
REV_AT_EPOCH   = 23673
BSTAR          = .9484533E-4
MEAN_MOTION_DOT = .206E-5
MEAN_MOTION_DDOT = 0

CCSDS_OMM_VERS = 2.0
CREATION_DATE  = 
ORIGINATOR     = 

OBJECT_NAME    = AQUA
OBJECT_ID      = 2002-022A
CENTER_NAME    = EARTH
REF_FRAME      = TEME
TIME_SYSTEM    = UTC
MEAN_ELEMENT_THEORY = SGP/SGP4

EPOCH          = 2026-01-17T23:15:43.601760
MEAN_MOTION    = 14.61826972
ECCENTRICITY   = .00020045
INCLINATION    = 98.4087
RA_OF_ASC_NODE = 344.4465
ARG_OF_PERICENTER = 74.6027
MEAN_ANOMALY   = 356.0068

EPHEMERIS_TYPE = 0
CLASSIFICATION_TYPE = U
NORAD_CAT_ID   = 27424
ELEMENT_SET_NO = 999
REV_AT_EPOCH   = 26132
BSTAR          = .18326345E-3
MEAN_MOTION_DOT = .866E-5
MEAN_MOTION_DDOT = 0

CCSDS_OMM_VERS = 2.0
CREATION_DATE  = 
ORIGINATOR     = 

OBJECT_NAME    = CZ-4B R/B
OBJECT_ID      = 2002-024C
CENTER_NAME    = EARTH
REF_FRAME      = TEME
TIME_SYSTEM    = UTC
MEAN_ELEMENT_THEORY = SGP/SGP4

EPOCH          = 2026-01-18T00:05:17.162304
MEAN_MOTION    = 14.14536150
ECCENTRICITY   = .00504428
INCLINATION    = 98.8943
RA_OF_ASC_NODE = 71.6393
ARG_OF_PERICENTER = 165.9635
MEAN_ANOMALY   = 258.8546

EPHEMERIS_TYPE = 0
CLASSIFICATION_TYPE = U
NORAD_CAT_ID   = 27432
ELEMENT_SET_NO = 999
REV_AT_EPOCH   = 22207
BSTAR          = .43732888E-4
MEAN_MOTION_DOT = .41E-6
MEAN_MOTION_DDOT = 0

CCSDS_OMM_VERS = 2.0
CREATION_DATE  = 
ORIGINATOR     = 

OBJECT_NAME    = MIDORI II (ADEOS-II)
OBJECT_ID      = 2002-056A
CENTER_NAME    = EARTH
REF_FRAME      = TEME
TIME_SYSTEM    = UTC
MEAN_ELEMENT_THEORY = SGP/SGP4

EPOCH          = 2026-01-17T21:49:40.338624
MEAN_MOTION    = 14.29237060
ECCENTRICITY   = .0001787
INCLINATION    = 98.7687
RA_OF_ASC_NODE = 336.0656
ARG_OF_PERICENTER = 114.2591
MEAN_ANOMALY   = 245.8777

EPHEMERIS_TYPE = 0
CLASSIFICATION_TYPE = U
NORAD_CAT_ID   = 27597
ELEMENT_SET_NO = 999
REV_AT_EPOCH   = 20304
BSTAR          = .12223922E-3
MEAN_MOTION_DOT = .265E-5
MEAN_MOTION_DDOT = 0

CCSDS_OMM_VERS = 2.0
CREATION_DATE  = 
ORIGINATOR     = 

OBJECT_NAME    = H-2A R/B
OBJECT_ID      = 2002-056E
CENTER_NAME    = EARTH
REF_FRAME      = TEME
TIME_SYSTEM    = UTC
MEAN_ELEMENT_THEORY = SGP/SGP4

EPOCH          = 2026-01-17T21:38:24.948960
MEAN_MOTION    = 14.33713480
ECCENTRICITY   = .00694662
INCLINATION    = 98.3114
RA_OF_ASC_NODE = 340.2295
ARG_OF_PERICENTER = 313.7380
MEAN_ANOMALY   = 107.0706

EPHEMERIS_TYPE = 0
CLASSIFICATION_TYPE = U
NORAD_CAT_ID   = 27601
ELEMENT_SET_NO = 999
REV_AT_EPOCH   = 20683
BSTAR          = .11938128E-3
MEAN_MOTION_DOT = .298E-5
MEAN_MOTION_DDOT = 0

CCSDS_OMM_VERS = 2.0
CREATION_DATE  = 
ORIGINATOR     = 

OBJECT_NAME    = CZ-4B R/B
OBJECT_ID      = 2003-049C
CENTER_NAME    = EARTH
REF_FRAME      = TEME
TIME_SYSTEM    = UTC
MEAN_ELEMENT_THEORY = SGP/SGP4

EPOCH          = 2026-01-17T23:25:20.322624
MEAN_MOTION    = 14.54951328
ECCENTRICITY   = .00487819
INCLINATION    = 98.6818
RA_OF_ASC_NODE = 10.9155
ARG_OF_PERICENTER = 27.7099
MEAN_ANOMALY   = 332.6680

EPHEMERIS_TYPE = 0
CLASSIFICATION_TYPE = U
NORAD_CAT_ID   = 28059
ELEMENT_SET_NO = 999
REV_AT_EPOCH   = 17922
BSTAR          = .10884223E-3
MEAN_MOTION_DOT = .424E-5
MEAN_MOTION_DDOT = 0

CCSDS_OMM_VERS = 2.0
CREATION_DATE  = 
ORIGINATOR     = 

OBJECT_NAME    = CZ-2C R/B
OBJECT_ID      = 2004-012C
CENTER_NAME    = EARTH
REF_FRAME      = TEME
TIME_SYSTEM    = UTC
MEAN_ELEMENT_THEORY = SGP/SGP4

EPOCH          = 2026-01-17T19:01:38.452224
MEAN_MOTION    = 15.58619828
ECCENTRICITY   = .00171823
INCLINATION    = 97.7361
RA_OF_ASC_NODE = 78.4663
ARG_OF_PERICENTER = 136.1400
MEAN_ANOMALY   = 224.1223

EPHEMERIS_TYPE = 0
CLASSIFICATION_TYPE = U
NORAD_CAT_ID   = 28222
ELEMENT_SET_NO = 999
REV_AT_EPOCH   = 19633
BSTAR          = .5031215E-3
MEAN_MOTION_DOT = .38845E-3
MEAN_MOTION_DDOT = 0

CCSDS_OMM_VERS = 2.0
CREATION_DATE  = 
ORIGINATOR     = 

OBJECT_NAME    = SL-16 R/B
OBJECT_ID      = 2004-021B
CENTER_NAME    = EARTH
REF_FRAME      = TEME
TIME_SYSTEM    = UTC
MEAN_ELEMENT_THEORY = SGP/SGP4

EPOCH          = 2026-01-17T21:32:15.504288
MEAN_MOTION    = 14.14592619
ECCENTRICITY   = .00028782
INCLINATION    = 71.0029
RA_OF_ASC_NODE = 339.0844
ARG_OF_PERICENTER = 138.4586
MEAN_ANOMALY   = 221.6755

EPHEMERIS_TYPE = 0
CLASSIFICATION_TYPE = U
NORAD_CAT_ID   = 28353
ELEMENT_SET_NO = 999
REV_AT_EPOCH   = 11565
BSTAR          = -.3421915E-4
MEAN_MOTION_DOT = -.113E-5
MEAN_MOTION_DDOT = 0

CCSDS_OMM_VERS = 2.0
CREATION_DATE  = 
ORIGINATOR     = 

OBJECT_NAME    = CZ-4B R/B
OBJECT_ID      = 2004-035C
CENTER_NAME    = EARTH
REF_FRAME      = TEME
TIME_SYSTEM    = UTC
MEAN_ELEMENT_THEORY = SGP/SGP4

EPOCH          = 2026-01-17T23:30:18.742176
MEAN_MOTION    = 15.28034955
ECCENTRICITY   = .00337507
INCLINATION    = 97.3569
RA_OF_ASC_NODE = 52.8489
ARG_OF_PERICENTER = 146.1253
MEAN_ANOMALY   = 214.2152

EPHEMERIS_TYPE = 0
CLASSIFICATION_TYPE = U
NORAD_CAT_ID   = 28415
ELEMENT_SET_NO = 999
REV_AT_EPOCH   = 17216
BSTAR          = .29400221E-3
MEAN_MOTION_DOT = .8101E-4
MEAN_MOTION_DDOT = 0

CCSDS_OMM_VERS = 2.0
CREATION_DATE  = 
ORIGINATOR     = 

OBJECT_NAME    = CZ-2C R/B
OBJECT_ID      = 2004-046B
CENTER_NAME    = EARTH
REF_FRAME      = TEME
TIME_SYSTEM    = UTC
MEAN_ELEMENT_THEORY = SGP/SGP4

EPOCH          = 2026-01-17T23:59:58.812864
MEAN_MOTION    = 14.26966821
ECCENTRICITY   = .01385355
INCLINATION    = 98.2003
RA_OF_ASC_NODE = 296.1288
ARG_OF_PERICENTER = 305.1275
MEAN_ANOMALY   = 53.6987

EPHEMERIS_TYPE = 0
CLASSIFICATION_TYPE = U
NORAD_CAT_ID   = 28480
ELEMENT_SET_NO = 999
REV_AT_EPOCH   = 10127
BSTAR          = .69466786E-4
MEAN_MOTION_DOT = .144E-5
MEAN_MOTION_DDOT = 0

CCSDS_OMM_VERS = 2.0
CREATION_DATE  = 
ORIGINATOR     = 

OBJECT_NAME    = ARIANE 5 R/B
OBJECT_ID      = 2004-049H
CENTER_NAME    = EARTH
REF_FRAME      = TEME
TIME_SYSTEM    = UTC
MEAN_ELEMENT_THEORY = SGP/SGP4

EPOCH          = 2026-01-17T23:15:58.904064
MEAN_MOTION    = 14.85126880
ECCENTRICITY   = .00848785
INCLINATION    = 98.2548
RA_OF_ASC_NODE = 184.5575
ARG_OF_PERICENTER = 154.7637
MEAN_ANOMALY   = 205.7761

EPHEMERIS_TYPE = 0
CLASSIFICATION_TYPE = U
NORAD_CAT_ID   = 28499
ELEMENT_SET_NO = 999
REV_AT_EPOCH   = 13826
BSTAR          = .12419449E-3
MEAN_MOTION_DOT = .1069E-4
MEAN_MOTION_DDOT = 0

CCSDS_OMM_VERS = 2.0
CREATION_DATE  = 
ORIGINATOR     = 

OBJECT_NAME    = CZ-2D R/B
OBJECT_ID      = 2005-024B
CENTER_NAME    = EARTH
REF_FRAME      = TEME
TIME_SYSTEM    = UTC
MEAN_ELEMENT_THEORY = SGP/SGP4

EPOCH          = 2026-01-17T12:22:14.077344
MEAN_MOTION    = 15.55597732
ECCENTRICITY   = .00046456
INCLINATION    = 97.3616
RA_OF_ASC_NODE = 30.9616
ARG_OF_PERICENTER = 180.4391
MEAN_ANOMALY   = 179.6860

EPHEMERIS_TYPE = 0
CLASSIFICATION_TYPE = U
NORAD_CAT_ID   = 28738
ELEMENT_SET_NO = 999
REV_AT_EPOCH   = 13181
BSTAR          = .45768608E-3
MEAN_MOTION_DOT = .31349E-3
MEAN_MOTION_DDOT = 0

