IDEFIX & ARIANE 42P R/B 
1 27422U 02021B   26017.73331304  .00000206  00000+0  94845-4 0  9993
2 27422  98.5823 316.9648 0011594 343.1592  16.9205 14.30980360236736
AQUA                    
1 27424U 02022A   26017.96925465  .00000866  00000+0  18326-3 0  9999
2 27424  98.4087 344.4465 0002004  74.6027 356.0068 14.61826972261327
CZ-4B R/B               
1 27432U 02024C   26018.00367086  .00000041  00000+0  43733-4 0  9991
2 27432  98.8943  71.6393 0050442 165.9635 258.8546 14.14536150222071
MIDORI II (ADEOS-II)    
1 27597U 02056A   26017.90949466  .00000265  00000+0  12224-3 0  9992
2 27597  98.7687 336.0656 0001787 114.2591 245.8777 14.29237060203045
H-2A R/B                
1 27601U 02056E   26017.90167765  .00000298  00000+0  11938-3 0  9999
2 27601  98.3114 340.2295 0069466 313.7380 107.0706 14.33713480206839
CZ-4B R/B               
1 28059U 03049C   26017.97592966  .00000424  00000+0  10884-3 0  9992
2 28059  98.6818  10.9155 0048781  27.7099 332.6680 14.54951328179220
CZ-2C R/B               
1 28222U 04012C   26017.79280616  .00038845  00000+0  50312-3 0  9999
2 28222  97.7361  78.4663 0017182 136.1400 224.1223 15.58619828196330
SL-16 R/B               
1 28353U 04021B   26017.89740167 -.00000113  00000+0 -34219-4 0  9995
2 28353  71.0029 339.0844 0002878 138.4586 221.6755 14.14592619115651
CZ-4B R/B               
1 28415U 04035C   26017.97938359  .00008101  00000+0  29400-3 0  9998
2 28415  97.3569  52.8489 0033750 146.1253 214.2152 15.28034955172163
CZ-2C R/B               
1 28480U 04046B   26017.99998626  .00000144  00000+0  69467-4 0  9994
2 28480  98.2003 296.1288 0138535 305.1275  53.6987 14.26966821101274
ARIANE 5 R/B            
1 28499U 04049H   26017.96943176  .00001069  00000+0  12419-3 0  9995
2 28499  98.2548 184.5575 0084878 154.7637 205.7761 14.85126880138264
CZ-2D R/B               
1 28738U 05024B   26017.51544071  .00031349  00000+0  45769-3 0  9995
2 28738  97.3616  30.9616 0004645 180.4391 179.6860 15.55597732131812
